[{"OBJECT_NAME":"TIANQI-6","OBJECT_ID":"2020-076D","EPOCH":"2026-03-09T22:50:24.728640","MEAN_MOTION":15.06417552,"ECCENTRICITY":0.00106023,"INCLINATION":34.9994,"RA_OF_ASC_NODE":297.1791,"ARG_OF_PERICENTER":9.4595,"MEAN_ANOMALY":350.6312,"EPHEMERIS_TYPE":0,"CLASSIFICATION_TYPE":"U","NORAD_CAT_ID":46810,"ELEMENT_SET_NO":999,"REV_AT_EPOCH":29360,"BSTAR":0.00037023286,"MEAN_MOTION_DOT":5.552e-5,"MEAN_MOTION_DDOT":0},{"OBJECT_NAME":"STARLINK-3998","OBJECT_ID":"2022-052N","EPOCH":"2026-03-09T21:14:54.233952","MEAN_MOTION":15.08834745,"ECCENTRICITY":0.00015005,"INCLINATION":53.2174,"RA_OF_ASC_NODE":283.2441,"ARG_OF_PERICENTER":85.6139,"MEAN_ANOMALY":274.5025,"EPHEMERIS_TYPE":0,"CLASSIFICATION_TYPE":"U","NORAD_CAT_ID":52610,"ELEMENT_SET_NO":999,"REV_AT_EPOCH":21081,"BSTAR":3.8239303e-5,"MEAN_MOTION_DOT":3.21e-6,"MEAN_MOTION_DDOT":0}]
